{"type": "FeatureCollection", "features": [ {"type": "Feature", "properties": {"norad_id": 33153, "name": "INTELSAT 25 (IS-25)", "group": "intelsat", "lat": 1.1755948745612042, "lon": -129.60293486258794, "alt_km": 35770.70525586401, "timestamp": "2025-12-20T11:30:28.038611+00:00", "meta": {"OBJECT_NAME": "INTELSAT 25 (IS-25)", "OBJECT_ID": "2008-034A", "EPOCH": "2025-12-20T03:15:38.761056", "MEAN_MOTION": 1.00270174, "ECCENTRICITY": 0.0004801, "INCLINATION": 2.2457, "RA_OF_ASC_NODE": 82.5709, "ARG_OF_PERICENTER": 187.3325, "MEAN_ANOMALY": 196.4726, "EPHEMERIS_TYPE": 0, "CLASSIFICATION_TYPE": "U", "NORAD_CAT_ID": 33153, "ELEMENT_SET_NO": 999, "REV_AT_EPOCH": 6390, "BSTAR": 0, "MEAN_MOTION_DOT": -2.02e-06, "MEAN_MOTION_DDOT": 0}, "tle": {"line1": "1 33153U 08034A   25354.13586529 -.00000202  00000+0  00000+0 0  9991", "line2": "2 33153   2.2457  82.5709 0004801 187.3325 196.4726  1.00270174 63905"}}, "geometry": {"type": "Point", "coordinates": [-129.60293486258794, 1.1755948745612042]}}, {"type": "Feature", "properties": {"norad_id": 33376, "name": "GALAXY 19 (G-19)", "group": "intelsat", "lat": -0.008339637412038787, "lon": 164.8927074071025, "alt_km": 35789.62016327911, "timestamp": "2025-12-20T11:30:28.038622+00:00", "meta": {"OBJECT_NAME": "GALAXY 19 (G-19)", "OBJECT_ID": "2008-045A", "EPOCH": "2025-12-20T05:07:10.727040", "MEAN_MOTION": 1.00271506, "ECCENTRICITY": 0.0002515, "INCLINATION": 0.0133, "RA_OF_ASC_NODE": 295.5153, "ARG_OF_PERICENTER": 338.3209, "MEAN_ANOMALY": 155.0094, "EPHEMERIS_TYPE": 0, "CLASSIFICATION_TYPE": "U", "NORAD_CAT_ID": 33376, "ELEMENT_SET_NO": 999, "REV_AT_EPOCH": 6310, "BSTAR": 0, "MEAN_MOTION_DOT": -1.15e-06, "MEAN_MOTION_DDOT": 0}, "tle": {"line1": "1 33376U 08045A   25354.21331860 -.00000115  00000+0  00000+0 0  9998", "line2": "2 33376   0.0133 295.5153 0002515 338.3209 155.0094  1.00271506 63108"}}, "geometry": {"type": "Point", "coordinates": [164.8927074071025, -0.008339637412038787]}}, {"type": "Feature", "properties": {"norad_id": 35493, "name": "FM-5", "group": "intelsat", "lat": -0.01827880449763808, "lon": 175.78503669738507, "alt_km": 35782.103160842315, "timestamp": "2025-12-20T11:30:28.038634+00:00", "meta": {"OBJECT_NAME": "FM-5", "OBJECT_ID": "2009-034A", "EPOCH": "2025-12-20T04:13:38.642016", "MEAN_MOTION": 1.00271807, "ECCENTRICITY": 0.0001018, "INCLINATION": 0.0204, "RA_OF_ASC_NODE": 294.9414, "ARG_OF_PERICENTER": 220.2537, "MEAN_ANOMALY": 271.0907, "EPHEMERIS_TYPE": 0, "CLASSIFICATION_TYPE": "U", "NORAD_CAT_ID": 35493, "ELEMENT_SET_NO": 999, "REV_AT_EPOCH": 4484, "BSTAR": 0, "MEAN_MOTION_DOT": -1.76e-06, "MEAN_MOTION_DDOT": 0}, "tle": {"line1": "1 35493U 09034A   25354.17614169 -.00000176  00000+0  00000+0 0  9997", "line2": "2 35493   0.0204 294.9414 0001018 220.2537 271.0907  1.00271807 44848"}}, "geometry": {"type": "Point", "coordinates": [175.78503669738507, -0.01827880449763808]}}, {"type": "Feature", "properties": {"norad_id": 36097, "name": "INTELSAT 14 (IS-14)", "group": "intelsat", "lat": -0.025936201206917392, "lon": -143.09537284620438, "alt_km": 35781.652255066576, "timestamp": "2025-12-20T11:30:28.038645+00:00", "meta": {"OBJECT_NAME": "INTELSAT 14 (IS-14)", "OBJECT_ID": "2009-064A", "EPOCH": "2025-12-20T03:23:38.704416", "MEAN_MOTION": 1.00271079, "ECCENTRICITY": 0.0002449, "INCLINATION": 0.0128, "RA_OF_ASC_NODE": 357.8431, "ARG_OF_PERICENTER": 282.4538, "MEAN_ANOMALY": 174.6048, "EPHEMERIS_TYPE": 0, "CLASSIFICATION_TYPE": "U", "NORAD_CAT_ID": 36097, "ELEMENT_SET_NO": 999, "REV_AT_EPOCH": 5881, "BSTAR": 0, "MEAN_MOTION_DOT": -2.49e-06, "MEAN_MOTION_DDOT": 0}, "tle": {"line1": "1 36097U 09064A   25354.14142019 -.00000249  00000+0  00000+0 0  9999", "line2": "2 36097   0.0128 357.8431 0002449 282.4538 174.6048  1.00271079 58819"}}, "geometry": {"type": "Point", "coordinates": [-143.09537284620438, -0.025936201206917392]}}, {"type": "Feature", "properties": {"norad_id": 36106, "name": "INTELSAT 15 (IS-15)", "group": "intelsat", "lat": -0.013376340404026396, "lon": -12.895516979429075, "alt_km": 35782.525212103865, "timestamp": "2025-12-20T11:30:28.038657+00:00", "meta": {"OBJECT_NAME": "INTELSAT 15 (IS-15)", "OBJECT_ID": "2009-067A", "EPOCH": "2025-12-20T01:39:03.237408", "MEAN_MOTION": 1.00272051, "ECCENTRICITY": 0.0002138, "INCLINATION": 0.012, "RA_OF_ASC_NODE": 15.9079, "ARG_OF_PERICENTER": 264.0966, "MEAN_ANOMALY": 278.8284, "EPHEMERIS_TYPE": 0, "CLASSIFICATION_TYPE": "U", "NORAD_CAT_ID": 36106, "ELEMENT_SET_NO": 999, "REV_AT_EPOCH": 3943, "BSTAR": 0, "MEAN_MOTION_DOT": -1.61e-06, "MEAN_MOTION_DDOT": 0}, "tle": {"line1": "1 36106U 09067A   25354.06878747 -.00000161  00000+0  00000+0 0  9991", "line2": "2 36106   0.0120  15.9079 0002138 264.0966 278.8284  1.00272051 39435"}}, "geometry": {"type": "Point", "coordinates": [-12.895516979429075, -0.013376340404026396]}}, {"type": "Feature", "properties": {"norad_id": 36131, "name": "DIRECTV 12", "group": "intelsat", "lat": 0.00929640860985993, "lon": 159.21961916123283, "alt_km": 35787.34423097665, "timestamp": "2025-12-20T11:30:28.038669+00:00", "meta": {"OBJECT_NAME": "DIRECTV 12", "OBJECT_ID": "2009-075A", "EPOCH": "2025-12-19T13:24:30.815136", "MEAN_MOTION": 1.00274473, "ECCENTRICITY": 4.78e-05, "INCLINATION": 0.0149, "RA_OF_ASC_NODE": 93.7995, "ARG_OF_PERICENTER": 244.7113, "MEAN_ANOMALY": 208.3134, "EPHEMERIS_TYPE": 0, "CLASSIFICATION_TYPE": "U", "NORAD_CAT_ID": 36131, "ELEMENT_SET_NO": 999, "REV_AT_EPOCH": 4475, "BSTAR": 0, "MEAN_MOTION_DOT": -8e-07, "MEAN_MOTION_DDOT": 0}, "tle": {"line1": "1 36131U 09075A   25353.55868999 -.00000080  00000+0  00000+0 0  9999", "line2": "2 36131   0.0149  93.7995 0000478 244.7113 208.3134  1.00274473 44752"}}, "geometry": {"type": "Point", "coordinates": [159.21961916123283, 0.00929640860985993]}}, {"type": "Feature", "properties": {"norad_id": 36397, "name": "INTELSAT 16 (IS-16)", "group": "intelsat", "lat": -0.011047334323051114, "lon": -174.29094964179905, "alt_km": 35785.43626424666, "timestamp": "2025-12-20T11:30:28.038681+00:00", "meta": {"OBJECT_NAME": "INTELSAT 16 (IS-16)", "OBJECT_ID": "2010-006A", "EPOCH": "2025-12-20T02:35:47.219424", "MEAN_MOTION": 1.00271903, "ECCENTRICITY": 0.0001819, "INCLINATION": 0.0114, "RA_OF_ASC_NODE": 343.9056, "ARG_OF_PERICENTER": 287.0054, "MEAN_ANOMALY": 140.7925, "EPHEMERIS_TYPE": 0, "CLASSIFICATION_TYPE": "U", "NORAD_CAT_ID": 36397, "ELEMENT_SET_NO": 999, "REV_AT_EPOCH": 5785, "BSTAR": 0, "MEAN_MOTION_DOT": -2.21e-06, "MEAN_MOTION_DDOT": 0}, "tle": {"line1": "1 36397U 10006A   25354.10818541 -.00000221  00000+0  00000+0 0  9996", "line2": "2 36397   0.0114 343.9056 0001819 287.0054 140.7925  1.00271903 57857"}}, "geometry": {"type": "Point", "coordinates": [-174.29094964179905, -0.011047334323051114]}}, {"type": "Feature", "properties": {"norad_id": 37185, "name": "XM-5", "group": "intelsat", "lat": -0.035798448137034866, "lon": 146.73250102953855, "alt_km": 35777.59721869813, "timestamp": "2025-12-20T11:30:28.038692+00:00", "meta": {"OBJECT_NAME": "XM-5", "OBJECT_ID": "2010-053A", "EPOCH": "2025-12-20T00:57:20.858400", "MEAN_MOTION": 1.00271954, "ECCENTRICITY": 0.0002005, "INCLINATION": 0.0636, "RA_OF_ASC_NODE": 271.3259, "ARG_OF_PERICENTER": 233.6386, "MEAN_ANOMALY": 203.0633, "EPHEMERIS_TYPE": 0, "CLASSIFICATION_TYPE": "U", "NORAD_CAT_ID": 37185, "ELEMENT_SET_NO": 999, "REV_AT_EPOCH": 5568, "BSTAR": 0, "MEAN_MOTION_DOT": 1e-08, "MEAN_MOTION_DDOT": 0}, "tle": {"line1": "1 37185U 10053A   25354.03982475  .00000001  00000+0  00000+0 0  9999", "line2": "2 37185   0.0636 271.3259 0002005 233.6386 203.0633  1.00271954 55688"}}, "geometry": {"type": "Point", "coordinates": [146.73250102953855, -0.035798448137034866]}}, {"type": "Feature", "properties": {"norad_id": 37238, "name": "INTELSAT 17 (IS-17)", "group": "intelsat", "lat": 0.0013474579547115124, "lon": -32.060796691750205, "alt_km": 35777.63553922303, "timestamp": "2025-12-20T11:30:28.038704+00:00", "meta": {"OBJECT_NAME": "INTELSAT 17 (IS-17)", "OBJECT_ID": "2010-065B", "EPOCH": "2025-12-20T03:16:20.835264", "MEAN_MOTION": 1.00270943, "ECCENTRICITY": 0.0002702, "INCLINATION": 0.0002, "RA_OF_ASC_NODE": 96.184, "ARG_OF_PERICENTER": 191.1984, "MEAN_ANOMALY": 276.6789, "EPHEMERIS_TYPE": 0, "CLASSIFICATION_TYPE": "U", "NORAD_CAT_ID": 37238, "ELEMENT_SET_NO": 999, "REV_AT_EPOCH": 5145, "BSTAR": 0, "MEAN_MOTION_DOT": 2.3e-07, "MEAN_MOTION_DDOT": 0}, "tle": {"line1": "1 37238U 10065B   25354.13635226  .00000023  00000+0  00000+0 0  9995", "line2": "2 37238   0.0002  96.1840 0002702 191.1984 276.6789  1.00270943 51455"}}, "geometry": {"type": "Point", "coordinates": [-32.060796691750205, 0.0013474579547115124]}}, {"type": "Feature", "properties": {"norad_id": 37392, "name": "INTELSAT 28 (IS-28)", "group": "intelsat", "lat": 0.744467747463403, "lon": -129.79377854162448, "alt_km": 35774.98791720552, "timestamp": "2025-12-20T11:30:28.038716+00:00", "meta": {"OBJECT_NAME": "INTELSAT 28 (IS-28)", "OBJECT_ID": "2011-016A", "EPOCH": "2025-12-20T03:15:38.761056", "MEAN_MOTION": 1.00270022, "ECCENTRICITY": 0.0003682, "INCLINATION": 1.3426, "RA_OF_ASC_NODE": 84.9767, "ARG_OF_PERICENTER": 187.705, "MEAN_ANOMALY": 193.5111, "EPHEMERIS_TYPE": 0, "CLASSIFICATION_TYPE": "U", "NORAD_CAT_ID": 37392, "ELEMENT_SET_NO": 999, "REV_AT_EPOCH": 5149, "BSTAR": 0, "MEAN_MOTION_DOT": -2.02e-06, "MEAN_MOTION_DDOT": 0}, "tle": {"line1": "1 37392U 11016A   25354.13586529 -.00000202  00000+0  00000+0 0  9994", "line2": "2 37392   1.3426  84.9767 0003682 187.7050 193.5111  1.00270022 51494"}}, "geometry": {"type": "Point", "coordinates": [-129.79377854162448, 0.744467747463403]}}]}